NORAD_CAT_ID,OBJECT_NAME,OBJECT_TYPE,EPOCH,MEAN_MOTION,ECCENTRICITY,INCLINATION,RA_OF_ASC_NODE,ARG_OF_PERICENTER,MEAN_ANOMALY,BSTAR,MEAN_MOTION_DOT,MEAN_MOTION_DDOT,TLE_LINE0,TLE_LINE1,TLE_LINE2,SEMIMAJOR_AXIS,PERIOD,APOGEE,PERIGEE,DECAYED
52625.0,STARLINK-3988,PAYLOAD,2023-03-16 12:59:14,15.0884623,9.35e-05,53.2148,118.4966,104.8195,255.2901,0.00011391,1.526e-05,0.0,0 STARLINK-3988,1 52625U 22052AD  23075.54114056  .00001526  00000-0  11391-3 0  9996,2 52625  53.2148 118.4966 0000935 104.8195 255.2901 15.08846230 46567,6917.861,95.437,540.373,539.08,0.0
52625.0,STARLINK-3988,PAYLOAD,2023-03-16 19:20:47,15.08820814,6.8e-05,53.2155,117.3091,149.9666,210.1365,-0.000594,-9.723e-05,0.0,0 STARLINK-3988,1 52625U 22052AD  23075.80610210 -.00009723  00000-0 -59400-3 0  9990,2 52625  53.2155 117.3091 0000680 149.9666 210.1365 15.08820814 46982,6917.939,95.439,540.274,539.334,0.0
52625.0,STARLINK-3988,PAYLOAD,2023-03-17 12:50:03,15.08831843,9.32e-05,53.2147,114.037,106.1261,253.9833,0.0012233,0.0001923,0.0,0 STARLINK-3988,1 52625U 22052AD  23076.53475715  .00019230  00000-0  12233-2 0  9994,2 52625  53.2147 114.0370 0000932 106.1261 253.9833 15.08831843 46713,6917.905,95.438,540.415,539.126,0.0
52625.0,STARLINK-3988,PAYLOAD,2023-03-17 19:11:35,15.08839278,9.5e-05,53.2148,112.8483,111.6504,248.459,0.0010483,0.00016435,0.0,0 STARLINK-3988,1 52625U 22052AD  23076.79971737  .00016435  00000-0  10483-2 0  9996,2 52625  53.2148 112.8483 0000950 111.6504 248.4590 15.08839278 47132,6917.883,95.438,540.405,539.09,0.0
52625.0,STARLINK-3988,PAYLOAD,2023-03-18 19:02:22,15.0884556,0.0001091,53.2139,108.387,100.616,259.4955,0.00024676,3.642e-05,0.0,0 STARLINK-3988,1 52625U 22052AD  23077.79331326  .00003642  00000-0  24676-3 0  9997,2 52625  53.2139 108.3870 0001091 100.6160 259.4955 15.08845560 47289,6917.863,95.437,540.483,538.974,0.0
52625.0,STARLINK-3988,PAYLOAD,2023-03-19 10:56:13,15.08861383,0.0001065,53.2138,105.4131,102.6371,257.474,0.00084039,0.0001312,0.0,0 STARLINK-3988,1 52625U 22052AD  23078.45570794  .00013120  00000-0  84039-3 0  9996,2 52625  53.2138 105.4131 0001065 102.6371 257.4740 15.08861383 47004,6917.815,95.436,540.417,538.943,0.0
52625.0,STARLINK-3988,PAYLOAD,2023-03-19 18:53:09,15.08832789,0.0001717,53.2137,103.9259,90.7505,269.3684,-4.8993e-06,-3.66e-06,0.0,0 STARLINK-3988,1 52625U 22052AD  23078.78691589 -.00000366  00000-0 -48993-5 0  9999,2 52625  53.2137 103.9259 0001717  90.7505 269.3684 15.08832789 47431,6917.902,95.438,540.955,538.58,0.0
52625.0,STARLINK-3988,PAYLOAD,2023-03-20 01:14:41,15.08846595,0.0001506,53.2125,102.7374,86.9961,273.1203,0.00065864,0.00010212,0.0,0 STARLINK-3988,1 52625U 22052AD  23079.05187402  .00010212  00000-0  65864-3 0  9997,2 52625  53.2125 102.7374 0001506  86.9961 273.1203 15.08846595 47476,6917.86,95.437,540.767,538.683,0.0
52625.0,STARLINK-3988,PAYLOAD,2023-03-20 10:47:00,15.08839932,0.0001102,53.2135,100.9525,85.3578,274.754,0.0012409,0.00019516,0.0,0 STARLINK-3988,1 52625U 22052AD  23079.44931622  .00019516  00000-0  12409-2 0  9993,2 52625  53.2135 100.9525 0001102  85.3578 274.7540 15.08839932 47539,6917.881,95.438,540.508,538.983,0.0
52625.0,STARLINK-3988,PAYLOAD,2023-03-20 18:43:56,15.08839329,0.0001183,53.214,99.4646,81.2324,278.8802,0.00083704,0.00013058,0.0,0 STARLINK-3988,1 52625U 22052AD  23079.78051823  .00013058  00000-0  83704-3 0  9998,2 52625  53.2140  99.4646 0001183  81.2324 278.8802 15.08839329 47585,6917.882,95.438,540.566,538.929,0.0
52625.0,STARLINK-3988,PAYLOAD,2023-03-21 10:37:47,15.08854537,0.0001213,53.2133,96.4908,83.6536,276.4594,0.00079042,0.00012319,0.0,0 STARLINK-3988,1 52625U 22052AD  23080.44291477  .00012319  00000-0  79042-3 0  9993,2 52625  53.2133  96.4908 0001213  83.6536 276.4594 15.08854537 47300,6917.836,95.437,540.54,538.862,0.0
52625.0,STARLINK-3988,PAYLOAD,2023-03-21 18:34:43,15.0884599,0.0001656,53.2142,95.0043,69.0925,291.0244,0.00036373,5.506e-05,0.0,0 STARLINK-3988,1 52625U 22052AD  23080.77411580  .00005506  00000-0  36373-3 0  9998,2 52625  53.2142  95.0043 0001656  69.0925 291.0244 15.08845990 47731,6917.862,95.437,540.873,538.581,0.0
52625.0,STARLINK-3988,PAYLOAD,2023-03-22 07:17:48,15.08843953,0.0001256,53.214,92.6249,88.1279,271.9857,0.0001714,2.441e-05,0.0,0 STARLINK-3988,1 52625U 22052AD  23081.30403564  .00002441  00000-0  17140-3 0  9997,2 52625  53.2140  92.6249 0001256  88.1279 271.9857 15.08843953 47813,6917.868,95.437,540.602,538.864,0.0
52625.0,STARLINK-3988,PAYLOAD,2023-03-22 12:03:57,15.08851198,0.0001248,53.2144,91.7323,92.6222,267.4913,0.00028376,4.232e-05,0.0,0 STARLINK-3988,1 52625U 22052AD  23081.50275206  .00004232  00000-0  28376-3 0  9992,2 52625  53.2144  91.7323 0001248  92.6222 267.4913 15.08851198 47463,6917.846,95.437,540.575,538.848,0.0
52625.0,STARLINK-3988,PAYLOAD,2023-03-23 07:08:35,15.08847082,0.0001232,53.2147,88.1634,100.0134,260.0997,5.9118e-05,6.53e-06,0.0,0 STARLINK-3988,1 52625U 22052AD  23082.29763194  .00000653  00000-0  59118-4 0  9999,2 52625  53.2147  88.1634 0001232 100.0134 260.0997 15.08847082 47581,6917.859,95.437,540.576,538.871,0.0
52625.0,STARLINK-3988,PAYLOAD,2023-03-24 03:48:36,15.08853244,0.0001423,53.2152,84.2957,106.5756,253.5393,0.00030368,4.55e-05,0.0,0 STARLINK-3988,1 52625U 22052AD  23083.15875204  .00004550  00000-0  30368-3 0  9996,2 52625  53.2152  84.2957 0001423 106.5756 253.5393 15.08853244 48096,6917.84,95.437,540.689,538.72,0.0
52625.0,STARLINK-3988,PAYLOAD,2023-03-24 11:45:31,15.08858097,0.0001799,53.2156,82.8057,122.5654,237.5512,0.00037954,5.76e-05,0.0,0 STARLINK-3988,1 52625U 22052AD  23083.48994558  .00005760  00000-0  37954-3 0  9998,2 52625  53.2156  82.8057 0001799 122.5654 237.5512 15.08858097 47765,6917.825,95.436,540.935,538.446,0.0
52625.0,STARLINK-3988,PAYLOAD,2023-03-24 16:31:41,15.08827821,0.0001718,53.2159,81.917,105.6929,254.4253,-0.00019018,-3.313e-05,0.0,0 STARLINK-3988,1 52625U 22052AD  23083.68867846 -.00003313  00000-0 -19018-3 0  9994,2 52625  53.2159  81.9170 0001718 105.6929 254.4253 15.08827821 48179,6917.918,95.438,540.971,538.594,0.0
52625.0,STARLINK-3988,PAYLOAD,2023-03-25 03:39:23,15.08836838,0.0001238,53.2162,79.8347,121.5841,238.5272,-7.0334e-06,-4e-06,0.0,0 STARLINK-3988,1 52625U 22052AD  23084.15235541 -.00000400  00000-0 -70334-5 0  9992,2 52625  53.2162  79.8347 0001238 121.5841 238.5272 15.08836838 48242,6917.89,95.438,540.611,538.899,0.0
52625.0,STARLINK-3988,PAYLOAD,2023-03-25 10:00:55,15.08845012,0.0001219,53.2154,78.6478,117.7026,242.409,0.0010155,0.00015913,0.0,0 STARLINK-3988,1 52625U 22052AD  23084.41731445  .00015913  00000-0  10155-2 0  9990,2 52625  53.2154  78.6478 0001219 117.7026 242.4090 15.08845012 48286,6917.865,95.437,540.573,538.887,0.0
52625.0,STARLINK-3988,PAYLOAD,2023-03-26 05:05:33,15.0883946,0.0001565,53.2168,75.0805,122.4178,237.6966,0.00061333,9.486e-05,0.0,0 STARLINK-3988,1 52625U 22052AD  23085.21219875  .00009486  00000-0  61333-3 0  9990,2 52625  53.2168  75.0805 0001565 122.4178 237.6966 15.08839460 48403,6917.882,95.438,540.83,538.664,0.0
52625.0,STARLINK-3988,PAYLOAD,2023-03-26 16:13:16,15.08841619,0.0001095,53.2152,72.9977,91.3887,268.723,0.00041132,6.265e-05,0.0,0 STARLINK-3988,1 52625U 22052AD  23085.67588040  .00006265  00000-0  41132-3 0  9990,2 52625  53.2152  72.9977 0001095  91.3887 268.7230 15.08841619 48476,6917.875,95.437,540.498,538.983,0.0
52625.0,STARLINK-3988,PAYLOAD,2023-03-26 22:34:48,15.08840992,0.0001231,53.2165,71.8107,93.7733,266.34,0.00034599,5.223e-05,0.0,0 STARLINK-3988,1 52625U 22052AD  23085.94083997  .00005223  00000-0  34599-3 0  9993,2 52625  53.2165  71.8107 0001231  93.7733 266.3400 15.08840992 48130,6917.877,95.437,540.594,538.891,0.0
52625.0,STARLINK-3988,PAYLOAD,2023-03-27 08:07:07,15.08843635,0.0001178,53.2161,70.0252,93.3273,266.7854,0.00028434,4.241e-05,0.0,0 STARLINK-3988,1 52625U 22052AD  23086.33828044  .00004241  00000-0  28434-3 0  9997,2 52625  53.2161  70.0252 0001178  93.3273 266.7854 15.08843635 48193,6917.869,95.437,540.549,538.919,0.0
52625.0,STARLINK-3988,PAYLOAD,2023-03-27 16:04:03,15.08840589,0.0001164,53.2157,68.5382,92.9892,267.1234,0.00016976,2.415e-05,0.0,0 STARLINK-3988,1 52625U 22052AD  23086.66948140  .00002415  00000-0  16976-3 0  9992,2 52625  53.2157  68.5382 0001164  92.9892 267.1234 15.08840589 48621,6917.879,95.438,540.549,538.938,0.0
52625.0,STARLINK-3988,PAYLOAD,2023-03-28 07:57:54,15.08854652,0.0001116,53.2158,65.5644,97.3283,262.7836,0.00037416,5.674e-05,0.0,0 STARLINK-3988,1 52625U 22052AD  23087.33187629  .00005674  00000-0  37416-3 0  9996,2 52625  53.2158  65.5644 0001116  97.3283 262.7836 15.08854652 48726,6917.836,95.437,540.473,538.929,0.0
52625.0,STARLINK-3988,PAYLOAD,2023-03-28 15:54:49,15.08849989,0.0001143,53.2159,64.0785,93.6329,266.4794,0.00027917,4.159e-05,0.0,0 STARLINK-3988,1 52625U 22052AD  23087.66307776  .00004159  00000-0  27917-3 0  9991,2 52625  53.2159  64.0785 0001143  93.6329 266.4794 15.08849989 48773,6917.85,95.437,540.506,538.924,0.0
52625.0,STARLINK-3988,PAYLOAD,2023-03-29 04:37:54,15.08853135,0.000115,53.216,61.6993,99.0137,261.0985,0.00034477,5.205e-05,0.0,0 STARLINK-3988,1 52625U 22052AD  23088.19299597  .00005205  00000-0  34477-3 0  9993,2 52625  53.2160  61.6993 0001150  99.0137 261.0985 15.08853135 48472,6917.84,95.437,540.501,538.91,0.0
52625.0,STARLINK-3988,PAYLOAD,2023-03-29 15:45:36,15.08847262,9.77e-05,53.2158,59.6182,86.6996,273.4108,0.0002392,3.522e-05,0.0,0 STARLINK-3988,1 52625U 22052AD  23088.65667704  .00003522  00000-0  23920-3 0  9994,2 52625  53.2158  59.6182 0000977  86.6996 273.4108 15.08847262 48925,6917.858,95.437,540.399,539.047,0.0
52625.0,STARLINK-3988,PAYLOAD,2023-03-30 04:28:42,15.08839645,0.0001269,53.2167,57.2381,98.2912,261.8224,4.7949e-05,4.75e-06,0.0,0 STARLINK-3988,1 52625U 22052AD  23089.18660038  .00000475  00000-0  47949-4 0  9998,2 52625  53.2167  57.2381 0001269  98.2912 261.8224 15.08839645 49008,6917.881,95.438,540.624,538.869,0.0
